     2.100          NAVIGATION                              RINEX VERSION / TYPE
fic2rin                                 02/27/2010 00:21:32 PGM / RUN BY / DATE
                                                            END OF HEADER
18 10  2 26  1 59 44.0  .514425337315D-04  .261479726760D-11  .000000000000D+00
     .110000000000D+02 -.143750000000D+02  .523343227918D-08  .899241977266D+00
    -.776723027229D-06  .109808096895D-01  .892952084541D-05  .515366757011D+04
     .439184000000D+06 -.558793544769D-07  .206876819307D+01  .108033418655D-06
     .938199694915D+00  .196281250000D+03 -.235340410562D+01 -.846249535404D-08
    -.681456956846D-09  .100000000000D+01  .157200000000D+04  .000000000000D+00
     .240000000000D+01  .000000000000D+00 -.107102096081D-07  .110000000000D+02
     .432756000000D+06  .400000000000D+01
 9 10  2 26  1 59 44.0  .108264852315D-03  .227373675443D-11  .000000000000D+00
     .400000000000D+01  .539375000000D+02  .431875132190D-08  .220506429577D+01
     .244565308094D-05  .207082886482D-01  .122934579849D-05  .515360332680D+04
     .439184000000D+06  .283122062683D-06 -.217470811949D+01 -.201165676117D-06
     .979359740641D+00  .359375000000D+03  .153141911007D+01 -.799819029959D-08
     .106433004790D-09  .100000000000D+01  .157200000000D+04  .000000000000D+00
     .240000000000D+01  .000000000000D+00 -.558793544769D-08  .400000000000D+01
     .433236000000D+06  .400000000000D+01
27 10  2 26  1 59 44.0  .129333697259D-03  .329691829393D-11  .000000000000D+00
     .290000000000D+02  .523125000000D+02  .462912139292D-08 -.969439456153D+00
     .303797423840D-05  .217263071099D-01  .284053385258D-05  .515365916634D+04
     .439184000000D+06 -.325962901115D-06 -.219932030300D+01  .134110450745D-06
     .977391303905D+00  .341062500000D+03 -.145664397473D+01 -.868107588737D-08
     .300726812193D-09  .100000000000D+01  .157200000000D+04  .000000000000D+00
     .240000000000D+01  .000000000000D+00 -.419095158577D-08  .290000000000D+02
     .438486000000D+06  .400000000000D+01
 9 10  2 26  3 59 44.0  .108281616122D-03  .227373675443D-11  .000000000000D+00
     .340000000000D+02  .631875000000D+02  .438982571100D-08 -.302793361213D+01
     .321306288242D-05  .207072289195D-01  .158511102200D-05  .515360565186D+04
     .446384000000D+06  .411644577980D-06 -.217476648700D+01  .279396772385D-07
     .979360710556D+00  .356500000000D+03  .153145383682D+01 -.802890586473D-08
     .258939357292D-09  .100000000000D+01  .157200000000D+04  .000000000000D+00
     .240000000000D+01  .000000000000D+00 -.558793544769D-08  .340000000000D+02
     .439206000000D+06  .400000000000D+01
18 10  2 26  3 59 44.0  .514611601830D-04  .261479726760D-11  .000000000000D+00
     .120000000000D+02 -.257500000000D+02  .506128225129D-08  .194928802648D+01
    -.131502747536D-05  .109808383277D-01  .888481736183D-05  .515367051125D+04
     .446384000000D+06 -.253319740295D-06  .206870669785D+01 -.912696123123D-07
     .938195914734D+00  .196250000000D+03 -.235326094007D+01 -.827213028172D-08
    -.520735976458D-09  .100000000000D+01  .157200000000D+04  .000000000000D+00
     .240000000000D+01  .000000000000D+00 -.107102096081D-07  .120000000000D+02
     .439206000000D+06  .400000000000D+01
27 10  2 26  3 59 44.0  .129356980324D-03  .329691829393D-11  .000000000000D+00
     .300000000000D+02  .560625000000D+02  .454054627483D-08  .807678856323D-01
     .293552875519D-05  .217273115413D-01  .302679836750D-05  .515366123962D+04
     .446384000000D+06 -.301748514175D-06 -.219938278569D+01 -.117346644402D-06
     .977393390026D+00  .334375000000D+03 -.145666173601D+01 -.871607734532D-08
     .216794744657D-09  .100000000000D+01  .157200000000D+04  .000000000000D+00
     .240000000000D+01  .000000000000D+00 -.419095158577D-08  .300000000000D+02
     .439206000000D+06  .400000000000D+01
 1 10  2 26  4  0  0.0 -.923024490476D-04 -.397903932026D-11  .000000000000D+00
     .118000000000D+03 -.123156250000D+03  .581738517459D-08  .185518663295D+01
    -.645965337753D-05  .437483424321D-02  .632368028164D-05  .515480077934D+04
     .446400000000D+06 -.137835741043D-06 -.110263467723D+01 -.242143869400D-07
     .963560554542D+00  .258156250000D+03  .876826507161D+00 -.821462788651D-08
    -.323584907182D-09  .100000000000D+01  .157200000000D+04  .000000000000D+00
     .240000000000D+01  .630000000000D+02 -.190921127796D-07  .118000000000D+03
     .439206000000D+06  .400000000000D+01
 2 10  2 26  4  0  0.0  .230630859733D-03  .397903932026D-11  .000000000000D+00
     .680000000000D+02  .273125000000D+02  .544879839290D-08 -.617467759233D+00
     .136718153954D-05  .937920087017D-02  .539422035217D-05  .515377086830D+04
     .446400000000D+06  .147148966789D-06  .981530409710D+00 -.180676579475D-06
     .940088462595D+00  .266750000000D+03  .297367892815D+01 -.857178562071D-08
     .333585323739D-09  .100000000000D+01  .157200000000D+04  .000000000000D+00
     .240000000000D+01  .000000000000D+00 -.172294676304D-07  .680000000000D+02
     .439206000000D+06  .400000000000D+01
 3 10  2 26  4  0  0.0  .520824920386D-03  .500222085975D-11  .000000000000D+00
     .470000000000D+02 -.478437500000D+02  .508806908136D-08 -.761805667441D+00
    -.242702662945D-05  .128632268170D-01  .127963721752D-04  .515370046616D+04
     .446400000000D+06  .558793544769D-08 -.169290847758D+00  .312924385071D-06
     .927437335762D+00  .114437500000D+03  .981431204846D+00 -.838713507213D-08
     .277868717205D-09  .100000000000D+01  .157200000000D+04  .000000000000D+00
     .240000000000D+01  .000000000000D+00 -.419095158577D-08  .470000000000D+02
     .439206000000D+06  .400000000000D+01
 4 10  2 26  4  0  0.0  .238642096519D-04  .898126018001D-11  .000000000000D+00
     .860000000000D+02  .313750000000D+02  .544415534235D-08  .238298694390D+01
     .150501728058D-05  .910935911816D-02  .559724867344D-05  .515363101196D+04
     .446400000000D+06 -.132247805595D-06  .999519168705D+00 -.117346644402D-06
     .939227260277D+00  .262625000000D+03  .596562804710D+00 -.844356599413D-08
     .320370487574D-09  .100000000000D+01  .157200000000D+04  .000000000000D+00
     .240000000000D+01  .000000000000D+00 -.605359673500D-08  .860000000000D+02
     .439206000000D+06  .400000000000D+01
 5 10  2 26  4  0  0.0 -.613322481513D-05  .193267624127D-11  .000000000000D+00
     .450000000000D+02 -.324687500000D+02  .466197990446D-08  .823872382232D+00
    -.158883631229D-05  .190055381972D-02  .874698162079D-05  .515365326500D+04
     .446400000000D+06 -.521540641785D-07  .204111964117D+01  .465661287308D-07
     .959142765769D+00  .209343750000D+03  .351851920502D+00 -.806962184643D-08
    -.550380068396D-09  .100000000000D+01  .157200000000D+04  .000000000000D+00
     .240000000000D+01  .000000000000D+00 -.884756445885D-08  .450000000000D+02
     .439206000000D+06  .400000000000D+01
 6 10  2 26  4  0  0.0  .698280055076D-03 -.613908923697D-11  .000000000000D+00
     .183000000000D+03 -.454375000000D+02  .486484549748D-08  .149551348865D+01
    -.248663127422D-05  .603261101060D-02  .126846134663D-04  .515367175674D+04
     .446400000000D+06  .108033418655D-06 -.994618603800D-01 -.447034835815D-07
     .934828068118D+00  .116843750000D+03 -.113638778000D+01 -.808819404860D-08
     .345014371233D-09  .100000000000D+01  .157200000000D+04  .000000000000D+00
     .340000000000D+01  .000000000000D+00 -.465661287308D-08  .183000000000D+03
     .439206000000D+06  .400000000000D+01
 7 10  2 26  4  0  0.0  .235810875893D-05 -.568434188608D-12  .000000000000D+00
     .600000000000D+02  .647187500000D+02  .473341145130D-08 -.229690018656D+01
     .332668423653D-05  .324553530663D-02  .147707760334D-05  .515372200775D+04
     .446400000000D+06 -.111758708954D-06 -.214271352325D+01 -.577419996262D-07
     .970535939586D+00  .358937500000D+03  .307098344519D+01 -.852071206472D-08
     .236795577772D-09  .100000000000D+01  .157200000000D+04  .000000000000D+00
     .240000000000D+01  .000000000000D+00 -.107102096081D-07  .600000000000D+02
     .439206000000D+06  .400000000000D+01
 8 10  2 26  4  0  0.0  .365590676665D-05  .341060513165D-12  .000000000000D+00
     .180000000000D+02  .512812500000D+02  .421624705218D-08 -.289725920664D+01
     .264868140221D-05  .109356032917D-01  .151619315147D-05  .515371252060D+04
     .446400000000D+06 -.203028321266D-06 -.207667033379D+01  .745058059692D-07
     .991809523133D+00  .371062500000D+03  .308985685708D+01 -.811605235187D-08
     .183579075377D-09  .100000000000D+01  .157200000000D+04  .000000000000D+00
     .240000000000D+01  .000000000000D+00 -.419095158577D-08  .180000000000D+02
     .439206000000D+06  .400000000000D+01
10 10  2 26  4  0  0.0 -.364463776350D-04 -.102318153949D-11  .000000000000D+00
     .820000000000D+02 -.294375000000D+02  .480305720947D-08  .832171567697D+00
    -.138953328133D-05  .915674958378D-02  .885315239429D-05  .515345530128D+04
     .446400000000D+06 -.163912773132D-06  .206740366208D+01  .856816768646D-07
     .954202687446D+00  .206656250000D+03  .656140436071D+00 -.820605610089D-08
    -.660384650529D-09  .100000000000D+01  .157200000000D+04  .000000000000D+00
     .240000000000D+01  .000000000000D+00 -.279396772385D-08  .820000000000D+02
     .439206000000D+06  .400000000000D+01
11 10  2 26  4  0  0.0 -.474681146443D-04 -.216004991671D-11  .000000000000D+00
     .650000000000D+02  .434375000000D+02  .642669626912D-08 -.238468596379D+01
     .217370688915D-05  .104962235782D-01  .633671879768D-05  .515371892166D+04
     .446400000000D+06  .763684511185D-07  .767471552088D+00 -.117346644402D-06
     .888716711784D+00  .217968750000D+03  .793625455217D+00 -.883572518628D-08
     .586452999550D-09  .100000000000D+01  .157200000000D+04  .000000000000D+00
     .240000000000D+01  .000000000000D+00 -.116415321827D-07  .650000000000D+02
     .439206000000D+06  .400000000000D+01
